{
  "type": "FeatureCollection",
  "features": [
    {
      "type": "Feature",
      "properties": {"name": "Mesa", "service": true},
      "geometry": {
        "type": "Polygon",
        "coordinates": [[
          [-111.978, 33.481],
          [-111.978, 33.354],
          [-111.893, 33.354],
          [-111.893, 33.310],
          [-111.720, 33.310],
          [-111.588, 33.310],
          [-111.530, 33.325],
          [-111.510, 33.365],
          [-111.525, 33.415],
          [-111.555, 33.458],
          [-111.620, 33.488],
          [-111.720, 33.495],
          [-111.840, 33.495],
          [-111.978, 33.481]
        ]]
      }
    },
    {
      "type": "Feature",
      "properties": {"name": "Tempe", "service": true},
      "geometry": {
        "type": "Polygon",
        "coordinates": [[
          [-112.058, 33.481],
          [-111.978, 33.481],
          [-111.978, 33.310],
          [-112.020, 33.305],
          [-112.058, 33.322],
          [-112.075, 33.368],
          [-112.068, 33.432],
          [-112.058, 33.481]
        ]]
      }
    },
    {
      "type": "Feature",
      "properties": {"name": "Gilbert", "service": true},
      "geometry": {
        "type": "Polygon",
        "coordinates": [[
          [-111.893, 33.310],
          [-111.720, 33.310],
          [-111.588, 33.310],
          [-111.588, 33.218],
          [-111.600, 33.200],
          [-111.660, 33.192],
          [-111.730, 33.192],
          [-111.808, 33.205],
          [-111.862, 33.235],
          [-111.893, 33.275],
          [-111.893, 33.310]
        ]]
      }
    },
    {
      "type": "Feature",
      "properties": {"name": "Chandler", "service": true},
      "geometry": {
        "type": "Polygon",
        "coordinates": [[
          [-112.058, 33.310],
          [-111.893, 33.310],
          [-111.893, 33.200],
          [-111.893, 33.175],
          [-111.978, 33.170],
          [-112.035, 33.170],
          [-112.068, 33.188],
          [-112.088, 33.228],
          [-112.088, 33.272],
          [-112.068, 33.298],
          [-112.058, 33.310]
        ]]
      }
    },
    {
      "type": "Feature",
      "properties": {"name": "Apache Junction", "service": true},
      "geometry": {
        "type": "Polygon",
        "coordinates": [[
          [-111.530, 33.415],
          [-111.510, 33.365],
          [-111.530, 33.325],
          [-111.568, 33.310],
          [-111.588, 33.310],
          [-111.588, 33.415],
          [-111.568, 33.438],
          [-111.542, 33.438],
          [-111.530, 33.415]
        ]]
      }
    },
    {
      "type": "Feature",
      "properties": {"name": "Queen Creek", "service": true},
      "geometry": {
        "type": "Polygon",
        "coordinates": [[
          [-111.730, 33.192],
          [-111.588, 33.192],
          [-111.548, 33.192],
          [-111.535, 33.155],
          [-111.548, 33.122],
          [-111.592, 33.105],
          [-111.648, 33.098],
          [-111.705, 33.108],
          [-111.742, 33.135],
          [-111.748, 33.168],
          [-111.738, 33.185],
          [-111.730, 33.192]
        ]]
      }
    },
    {
      "type": "Feature",
      "properties": {"name": "San Tan Valley", "service": true},
      "geometry": {
        "type": "Polygon",
        "coordinates": [[
          [-111.548, 33.192],
          [-111.535, 33.155],
          [-111.505, 33.192],
          [-111.490, 33.160],
          [-111.492, 33.122],
          [-111.518, 33.098],
          [-111.562, 33.082],
          [-111.615, 33.085],
          [-111.648, 33.105],
          [-111.658, 33.140],
          [-111.642, 33.168],
          [-111.615, 33.185],
          [-111.588, 33.192],
          [-111.548, 33.192]
        ]]
      }
    },
    {
      "type": "Feature",
      "properties": {"name": "Gold Canyon", "service": true},
      "geometry": {
        "type": "Polygon",
        "coordinates": [[
          [-111.505, 33.192],
          [-111.490, 33.160],
          [-111.465, 33.148],
          [-111.440, 33.158],
          [-111.422, 33.182],
          [-111.420, 33.212],
          [-111.438, 33.235],
          [-111.462, 33.245],
          [-111.488, 33.232],
          [-111.505, 33.212],
          [-111.505, 33.192]
        ]]
      }
    }
  ]
}
