{
  "type": "FeatureCollection",
  "features": [
    {
      "type": "Feature",
      "properties": {"name": "Mesa", "service": true},
      "geometry": {
        "type": "Polygon",
        "coordinates": [[
          [-111.978, 33.481],
          [-111.978, 33.354],
          [-111.893, 33.354],
          [-111.893, 33.310],
          [-111.720, 33.310],
          [-111.588, 33.310],
          [-111.530, 33.330],
          [-111.515, 33.365],
          [-111.530, 33.420],
          [-111.560, 33.468],
          [-111.620, 33.498],
          [-111.720, 33.505],
          [-111.820, 33.505],
          [-111.893, 33.498],
          [-111.978, 33.481]
        ]]
      }
    },
    {
      "type": "Feature",
      "properties": {"name": "Tempe", "service": true},
      "geometry": {
        "type": "Polygon",
        "coordinates": [[
          [-112.058, 33.481],
          [-111.978, 33.481],
          [-111.978, 33.310],
          [-112.020, 33.310],
          [-112.058, 33.330],
          [-112.068, 33.380],
          [-112.058, 33.440],
          [-112.058, 33.481]
        ]]
      }
    },
    {
      "type": "Feature",
      "properties": {"name": "Gilbert", "service": true},
      "geometry": {
        "type": "Polygon",
        "coordinates": [[
          [-111.893, 33.310],
          [-111.588, 33.310],
          [-111.588, 33.148],
          [-111.650, 33.148],
          [-111.720, 33.148],
          [-111.800, 33.160],
          [-111.860, 33.190],
          [-111.893, 33.230],
          [-111.893, 33.310]
        ]]
      }
    },
    {
      "type": "Feature",
      "properties": {"name": "Chandler", "service": true},
      "geometry": {
        "type": "Polygon",
        "coordinates": [[
          [-112.058, 33.310],
          [-111.893, 33.310],
          [-111.893, 33.100],
          [-111.978, 33.095],
          [-112.020, 33.095],
          [-112.058, 33.110],
          [-112.085, 33.150],
          [-112.085, 33.210],
          [-112.068, 33.270],
          [-112.058, 33.310]
        ]]
      }
    },
    {
      "type": "Feature",
      "properties": {"name": "Apache Junction", "service": true},
      "geometry": {
        "type": "Polygon",
        "coordinates": [[
          [-111.530, 33.420],
          [-111.515, 33.365],
          [-111.530, 33.330],
          [-111.510, 33.298],
          [-111.475, 33.318],
          [-111.455, 33.355],
          [-111.460, 33.400],
          [-111.480, 33.430],
          [-111.510, 33.445],
          [-111.530, 33.440],
          [-111.530, 33.420]
        ]]
      }
    },
    {
      "type": "Feature",
      "properties": {"name": "Queen Creek", "service": true},
      "geometry": {
        "type": "Polygon",
        "coordinates": [[
          [-111.760, 33.148],
          [-111.588, 33.148],
          [-111.530, 33.148],
          [-111.510, 33.090],
          [-111.530, 33.040],
          [-111.580, 33.010],
          [-111.650, 33.000],
          [-111.720, 33.010],
          [-111.780, 33.045],
          [-111.800, 33.090],
          [-111.790, 33.130],
          [-111.760, 33.148]
        ]]
      }
    },
    {
      "type": "Feature",
      "properties": {"name": "San Tan Valley", "service": true},
      "geometry": {
        "type": "Polygon",
        "coordinates": [[
          [-111.530, 33.148],
          [-111.510, 33.090],
          [-111.460, 33.148],
          [-111.448, 33.048],
          [-111.490, 33.005],
          [-111.550, 32.980],
          [-111.620, 32.985],
          [-111.670, 33.010],
          [-111.680, 33.055],
          [-111.660, 33.100],
          [-111.630, 33.130],
          [-111.588, 33.148],
          [-111.530, 33.148]
        ]]
      }
    },
    {
      "type": "Feature",
      "properties": {"name": "Gold Canyon", "service": true},
      "geometry": {
        "type": "Polygon",
        "coordinates": [[
          [-111.460, 33.400],
          [-111.420, 33.388],
          [-111.388, 33.360],
          [-111.375, 33.320],
          [-111.388, 33.285],
          [-111.420, 33.262],
          [-111.460, 33.258],
          [-111.495, 33.275],
          [-111.510, 33.310],
          [-111.505, 33.350],
          [-111.485, 33.385],
          [-111.460, 33.400]
        ]]
      }
    }
  ]
}
